STARLINK-36854          
1 68312U 26057U   26087.58335648 -.01192242  47654-3 -18490-2 0  9991
2 68312  97.2790 210.6946 0001274  69.3489 192.4545 16.04230127  2241
STARLINK-36815          
1 68313U 26057V   26087.58335648 -.01188580  47456-3 -18294-2 0  9994
2 68313  97.2791 210.6958 0001283  62.7314 201.7938 16.04356640  2249
STARLINK-37155          
1 68314U 26057W   26087.58335648 -.01192175  47876-3 -18054-2 0  9990
2 68314  97.2787 210.6982 0001155  76.0629 194.1479 16.04628074  2290
STARLINK-37150          
1 68315U 26057X   26087.58335648 -.01190923  47710-3 -18173-2 0  9999
2 68315  97.2788 210.6972 0001234  77.5738 190.0107 16.04500506  2298
STARLINK-37154          
1 68316U 26057Y   26087.58335648 -.01179844  47118-3 -17576-2 0  9997
2 68316  97.2783 210.7007 0001082  61.7643 214.2172 16.04899785  2195
STARLINK-37139          
1 68317U 26057Z   26087.58335648 -.01190394  47823-3 -17877-2 0  9998
2 68317  97.2784 210.6995 0001119  71.6565 201.4756 16.04766554  2043
STARLINK-37113          
1 68318U 26057AA  26087.58335648 -.01180813  47273-3 -17435-2 0  9993
2 68318  97.2782 210.7022 0001131  63.2630 215.7141 16.05046501  2295
PROGRESS-MS 33          
1 68319U 26058A   26087.48736241  .00011758  00000+0  22419-3 0  9998
2 68319  51.6344 339.4313 0006230 242.6596 117.3758 15.48607800   701
CENTISPACE-1 OBJECT A   
1 68350U 26060A   26087.19423177  .00000020  00000+0  33910-4 0  9994
2 68350  54.9867   6.1190 0012012 306.4727  53.5165 14.74880166   825
CENTISPACE-1 OBJECT B   
1 68351U 26060B   26085.49984115  .00000016  00000+0  33361-4 0  9995
2 68351  54.9834  13.0446 0012921 301.6406  58.3332 14.74920000   574
CENTISPACE-1 OBJECT C   
1 68352U 26060C   26087.19343442  .00000043  00000+0  37214-4 0  9998
2 68352  54.9834   6.1290 0012496 312.7791  47.2156 14.75106597   829
CENTISPACE-1 OBJECT D   
1 68353U 26060D   26087.05774787  .00000042  00000+0  36924-4 0  9990
2 68353  54.9866   6.6899 0012429 311.9738  48.0202 14.75150209   801
