CCSDS_OMM_VERS = 2.0
CREATION_DATE  = 
ORIGINATOR     = 

OBJECT_NAME    = STARLINK-36854
OBJECT_ID      = 2026-057U
CENTER_NAME    = EARTH
REF_FRAME      = TEME
TIME_SYSTEM    = UTC
MEAN_ELEMENT_THEORY = SGP/SGP4

EPOCH          = 2026-03-28T14:00:01.999872
MEAN_MOTION    = 16.04230127
ECCENTRICITY   = .0001274
INCLINATION    = 97.2790
RA_OF_ASC_NODE = 210.6946
ARG_OF_PERICENTER = 69.3489
MEAN_ANOMALY   = 192.4545

EPHEMERIS_TYPE = 0
CLASSIFICATION_TYPE = U
NORAD_CAT_ID   = 68312
ELEMENT_SET_NO = 999
REV_AT_EPOCH   = 224
BSTAR          = -.18489935E-2
MEAN_MOTION_DOT = -.1192242E-1
MEAN_MOTION_DDOT = .4765435E-3

CCSDS_OMM_VERS = 2.0
CREATION_DATE  = 
ORIGINATOR     = 

OBJECT_NAME    = STARLINK-36815
OBJECT_ID      = 2026-057V
CENTER_NAME    = EARTH
REF_FRAME      = TEME
TIME_SYSTEM    = UTC
MEAN_ELEMENT_THEORY = SGP/SGP4

EPOCH          = 2026-03-28T14:00:01.999872
MEAN_MOTION    = 16.04356640
ECCENTRICITY   = .00012833
INCLINATION    = 97.2791
RA_OF_ASC_NODE = 210.6958
ARG_OF_PERICENTER = 62.7314
MEAN_ANOMALY   = 201.7938

EPHEMERIS_TYPE = 0
CLASSIFICATION_TYPE = U
NORAD_CAT_ID   = 68313
ELEMENT_SET_NO = 999
REV_AT_EPOCH   = 224
BSTAR          = -.182937E-2
MEAN_MOTION_DOT = -.118858E-1
MEAN_MOTION_DDOT = .47455677E-3

CCSDS_OMM_VERS = 2.0
CREATION_DATE  = 
ORIGINATOR     = 

OBJECT_NAME    = STARLINK-37155
OBJECT_ID      = 2026-057W
CENTER_NAME    = EARTH
REF_FRAME      = TEME
TIME_SYSTEM    = UTC
MEAN_ELEMENT_THEORY = SGP/SGP4

EPOCH          = 2026-03-28T14:00:01.999872
MEAN_MOTION    = 16.04628074
ECCENTRICITY   = .00011554
INCLINATION    = 97.2787
RA_OF_ASC_NODE = 210.6982
ARG_OF_PERICENTER = 76.0629
MEAN_ANOMALY   = 194.1479

EPHEMERIS_TYPE = 0
CLASSIFICATION_TYPE = U
NORAD_CAT_ID   = 68314
ELEMENT_SET_NO = 999
REV_AT_EPOCH   = 229
BSTAR          = -.18053981E-2
MEAN_MOTION_DOT = -.1192175E-1
MEAN_MOTION_DDOT = .478761E-3

CCSDS_OMM_VERS = 2.0
CREATION_DATE  = 
ORIGINATOR     = 

OBJECT_NAME    = STARLINK-37150
OBJECT_ID      = 2026-057X
CENTER_NAME    = EARTH
REF_FRAME      = TEME
TIME_SYSTEM    = UTC
MEAN_ELEMENT_THEORY = SGP/SGP4

EPOCH          = 2026-03-28T14:00:01.999872
MEAN_MOTION    = 16.04500506
ECCENTRICITY   = .00012345
INCLINATION    = 97.2788
RA_OF_ASC_NODE = 210.6972
ARG_OF_PERICENTER = 77.5738
MEAN_ANOMALY   = 190.0107

EPHEMERIS_TYPE = 0
CLASSIFICATION_TYPE = U
NORAD_CAT_ID   = 68315
ELEMENT_SET_NO = 999
REV_AT_EPOCH   = 229
BSTAR          = -.18173105E-2
MEAN_MOTION_DOT = -.1190923E-1
MEAN_MOTION_DDOT = .47710283E-3

CCSDS_OMM_VERS = 2.0
CREATION_DATE  = 
ORIGINATOR     = 

OBJECT_NAME    = STARLINK-37154
OBJECT_ID      = 2026-057Y
CENTER_NAME    = EARTH
REF_FRAME      = TEME
TIME_SYSTEM    = UTC
MEAN_ELEMENT_THEORY = SGP/SGP4

EPOCH          = 2026-03-28T14:00:01.999872
MEAN_MOTION    = 16.04899785
ECCENTRICITY   = .00010824
INCLINATION    = 97.2783
RA_OF_ASC_NODE = 210.7007
ARG_OF_PERICENTER = 61.7643
MEAN_ANOMALY   = 214.2172

EPHEMERIS_TYPE = 0
CLASSIFICATION_TYPE = U
NORAD_CAT_ID   = 68316
ELEMENT_SET_NO = 999
REV_AT_EPOCH   = 219
BSTAR          = -.17575945E-2
MEAN_MOTION_DOT = -.1179844E-1
MEAN_MOTION_DDOT = .47118055E-3

CCSDS_OMM_VERS = 2.0
CREATION_DATE  = 
ORIGINATOR     = 

OBJECT_NAME    = STARLINK-37139
OBJECT_ID      = 2026-057Z
CENTER_NAME    = EARTH
REF_FRAME      = TEME
TIME_SYSTEM    = UTC
MEAN_ELEMENT_THEORY = SGP/SGP4

EPOCH          = 2026-03-28T14:00:01.999872
MEAN_MOTION    = 16.04766554
ECCENTRICITY   = .00011193
INCLINATION    = 97.2784
RA_OF_ASC_NODE = 210.6995
ARG_OF_PERICENTER = 71.6565
MEAN_ANOMALY   = 201.4756

EPHEMERIS_TYPE = 0
CLASSIFICATION_TYPE = U
NORAD_CAT_ID   = 68317
ELEMENT_SET_NO = 999
REV_AT_EPOCH   = 204
BSTAR          = -.17877459E-2
MEAN_MOTION_DOT = -.1190394E-1
MEAN_MOTION_DDOT = .47823293E-3

CCSDS_OMM_VERS = 2.0
CREATION_DATE  = 
ORIGINATOR     = 

OBJECT_NAME    = STARLINK-37113
OBJECT_ID      = 2026-057AA
CENTER_NAME    = EARTH
REF_FRAME      = TEME
TIME_SYSTEM    = UTC
MEAN_ELEMENT_THEORY = SGP/SGP4

EPOCH          = 2026-03-28T14:00:01.999872
MEAN_MOTION    = 16.05046501
ECCENTRICITY   = .0001131
INCLINATION    = 97.2782
RA_OF_ASC_NODE = 210.7022
ARG_OF_PERICENTER = 63.2630
MEAN_ANOMALY   = 215.7141

EPHEMERIS_TYPE = 0
CLASSIFICATION_TYPE = U
NORAD_CAT_ID   = 68318
ELEMENT_SET_NO = 999
REV_AT_EPOCH   = 229
BSTAR          = -.17435452E-2
MEAN_MOTION_DOT = -.1180813E-1
MEAN_MOTION_DDOT = .47273014E-3

CCSDS_OMM_VERS = 2.0
CREATION_DATE  = 
ORIGINATOR     = 

OBJECT_NAME    = PROGRESS-MS 33
OBJECT_ID      = 2026-058A
CENTER_NAME    = EARTH
REF_FRAME      = TEME
TIME_SYSTEM    = UTC
MEAN_ELEMENT_THEORY = SGP/SGP4

EPOCH          = 2026-03-28T11:41:48.112224
MEAN_MOTION    = 15.48607800
ECCENTRICITY   = .00062307
INCLINATION    = 51.6344
RA_OF_ASC_NODE = 339.4313
ARG_OF_PERICENTER = 242.6596
MEAN_ANOMALY   = 117.3758

EPHEMERIS_TYPE = 0
CLASSIFICATION_TYPE = U
NORAD_CAT_ID   = 68319
ELEMENT_SET_NO = 999
REV_AT_EPOCH   = 70
BSTAR          = .22418742E-3
MEAN_MOTION_DOT = .11758E-3
MEAN_MOTION_DDOT = 0

CCSDS_OMM_VERS = 2.0
CREATION_DATE  = 
ORIGINATOR     = 

OBJECT_NAME    = CENTISPACE-1 OBJECT A
OBJECT_ID      = 2026-060A
CENTER_NAME    = EARTH
REF_FRAME      = TEME
TIME_SYSTEM    = UTC
MEAN_ELEMENT_THEORY = SGP/SGP4

EPOCH          = 2026-03-28T04:39:41.624928
MEAN_MOTION    = 14.74880166
ECCENTRICITY   = .00120124
INCLINATION    = 54.9867
RA_OF_ASC_NODE = 6.1190
ARG_OF_PERICENTER = 306.4727
MEAN_ANOMALY   = 53.5165

EPHEMERIS_TYPE = 0
CLASSIFICATION_TYPE = U
NORAD_CAT_ID   = 68350
ELEMENT_SET_NO = 999
REV_AT_EPOCH   = 82
BSTAR          = .33910316E-4
MEAN_MOTION_DOT = .2E-6
MEAN_MOTION_DDOT = 0

CCSDS_OMM_VERS = 2.0
CREATION_DATE  = 
ORIGINATOR     = 

OBJECT_NAME    = CENTISPACE-1 OBJECT B
OBJECT_ID      = 2026-060B
CENTER_NAME    = EARTH
REF_FRAME      = TEME
TIME_SYSTEM    = UTC
MEAN_ELEMENT_THEORY = SGP/SGP4

EPOCH          = 2026-03-26T11:59:46.275360
MEAN_MOTION    = 14.74920000
ECCENTRICITY   = .0012921
INCLINATION    = 54.9834
RA_OF_ASC_NODE = 13.0446
ARG_OF_PERICENTER = 301.6406
MEAN_ANOMALY   = 58.3332

EPHEMERIS_TYPE = 0
CLASSIFICATION_TYPE = U
NORAD_CAT_ID   = 68351
ELEMENT_SET_NO = 999
REV_AT_EPOCH   = 57
BSTAR          = .33361247E-4
MEAN_MOTION_DOT = .16E-6
MEAN_MOTION_DDOT = 0

CCSDS_OMM_VERS = 2.0
CREATION_DATE  = 
ORIGINATOR     = 

OBJECT_NAME    = CENTISPACE-1 OBJECT C
OBJECT_ID      = 2026-060C
CENTER_NAME    = EARTH
REF_FRAME      = TEME
TIME_SYSTEM    = UTC
MEAN_ELEMENT_THEORY = SGP/SGP4

EPOCH          = 2026-03-28T04:38:32.733888
MEAN_MOTION    = 14.75106597
ECCENTRICITY   = .00124965
INCLINATION    = 54.9834
RA_OF_ASC_NODE = 6.1290
ARG_OF_PERICENTER = 312.7791
MEAN_ANOMALY   = 47.2156

EPHEMERIS_TYPE = 0
CLASSIFICATION_TYPE = U
NORAD_CAT_ID   = 68352
ELEMENT_SET_NO = 999
REV_AT_EPOCH   = 82
BSTAR          = .37214278E-4
MEAN_MOTION_DOT = .43E-6
MEAN_MOTION_DDOT = 0

CCSDS_OMM_VERS = 2.0
CREATION_DATE  = 
ORIGINATOR     = 

OBJECT_NAME    = CENTISPACE-1 OBJECT D
OBJECT_ID      = 2026-060D
CENTER_NAME    = EARTH
REF_FRAME      = TEME
TIME_SYSTEM    = UTC
MEAN_ELEMENT_THEORY = SGP/SGP4

EPOCH          = 2026-03-28T01:23:09.415968
MEAN_MOTION    = 14.75150209
ECCENTRICITY   = .0012429
INCLINATION    = 54.9866
RA_OF_ASC_NODE = 6.6899
ARG_OF_PERICENTER = 311.9738
MEAN_ANOMALY   = 48.0202

EPHEMERIS_TYPE = 0
CLASSIFICATION_TYPE = U
NORAD_CAT_ID   = 68353
ELEMENT_SET_NO = 999
REV_AT_EPOCH   = 80
BSTAR          = .36924007E-4
MEAN_MOTION_DOT = .42E-6
MEAN_MOTION_DDOT = 0

